     2.11           N: GPS NAV DATA                         RINEX VERSION / TYPE
CONVBIN 2.4.3                           20210828 164425 UTC PGM / RUN BY / DATE 
log: logs/21_08_28_05_02_33_brdc.rtcm                       COMMENT             
format: RTCM 3                                              COMMENT             
                                                            END OF HEADER       
 7 21  8 28  6  0  0.0  .233988277614E-03  .761701812735E-11  .000000000000E+00
     .470000000000E+02  .461562500000E+02  .461340645261E-08 -.258290550454E+01
     .209175050259E-05  .152579856804E-01  .997446477413E-05  .515374667931E+04
     .540000000000E+06  .162050127983E-06 -.192875198040E+01 -.191852450371E-06
     .951247333990E+00  .181125000000E+03 -.230928399145E+01 -.785889878325E-08
     .216794744657E-09  .100000000000E+01  .217200000000E+04  .000000000000E+00
     .200000000000E+01  .000000000000E+00 -.111758708954E-07  .470000000000E+02
     .518400000000E+06  .400000000000E+01
 8 21  8 28  5 59 44.0 -.342945568264E-04 -.136424205266E-11  .000000000000E+00
     .180000000000E+02 -.452812500000E+02  .454626079858E-08  .340816231198E+00
    -.241957604885E-05  .643621897325E-02  .593625009060E-05  .515364568329E+04
     .539984000000E+06  .689178705215E-07  .139991192384E+00  .465661287308E-07
     .966778738786E+00  .265000000000E+03  .572695664902E-01 -.827284459718E-08
    -.383230248792E-09  .100000000000E+01  .217200000000E+04  .000000000000E+00
     .200000000000E+01  .000000000000E+00  .512227416039E-08  .180000000000E+02
     .518400000000E+06  .400000000000E+01
 9 21  8 28  6  0  0.0 -.359864439815E-03 -.795807864051E-12  .000000000000E+00
     .750000000000E+02 -.349687500000E+02  .469983862429E-08  .691495042081E+00
    -.189989805222E-05  .207892176695E-02  .786222517490E-05  .515372006607E+04
     .540000000000E+06 -.167638063431E-07 -.300081901216E+01 -.540167093277E-07
     .953995122778E+00  .222062500000E+03  .181493381148E+01 -.816891169653E-08
    -.150006248362E-09  .100000000000E+01  .217200000000E+04  .000000000000E+00
     .200000000000E+01  .000000000000E+00  .139698386192E-08  .750000000000E+02
     .518400000000E+06  .400000000000E+01
10 21  8 28  6  0  0.0 -.191453844309E-03 -.773070496507E-11  .000000000000E+00
     .880000000000E+02 -.203125000000E+01  .444125642473E-08  .234266491177E+01
    -.100582838058E-06  .685375020839E-02  .594183802605E-05  .515367081451E+04
     .540000000000E+06 -.106170773506E-06  .225037333663E+01 -.800937414169E-07
     .970200929883E+00  .269531250000E+03 -.258249093258E+01 -.803854912355E-08
     .225723688012E-09  .100000000000E+01  .217200000000E+04  .000000000000E+00
     .200000000000E+01  .000000000000E+00  .232830643654E-08  .880000000000E+02
     .518400000000E+06  .400000000000E+01
12 21  8 28  6  0  0.0 -.891643576324E-04 -.545696821064E-11  .000000000000E+00
     .270000000000E+02  .384062500000E+02  .453554606656E-08  .296310457885E+01
     .195391476154E-05  .823986646719E-02  .420957803726E-05  .515368838310E+04
     .540000000000E+06  .987201929092E-07 -.816968393441E+00 -.147148966789E-06
     .972272565249E+00  .300843750000E+03  .123178867342E+01 -.806140721854E-08
    -.785747015231E-11  .100000000000E+01  .217200000000E+04  .000000000000E+00
     .200000000000E+01  .000000000000E+00 -.125728547573E-07  .270000000000E+02
     .518400000000E+06  .400000000000E+01
13 21  8 28  6  0  0.0  .177434179932E-03  .522959453519E-11  .000000000000E+00
     .860000000000E+02 -.289687500000E+02  .436375319641E-08 -.284754461578E+00
    -.146217644215E-05  .533026072662E-02  .873580574989E-05  .515368392754E+04
     .540000000000E+06 -.149011611938E-07 -.285077037062E+01  .670552253723E-07
     .968660049973E+00  .217531250000E+03  .960500685829E+00 -.801033366255E-08
    -.160720980388E-09  .100000000000E+01  .217200000000E+04  .000000000000E+00
     .200000000000E+01  .000000000000E+00 -.111758708954E-07  .860000000000E+02
     .518400000000E+06  .400000000000E+01
14 21  8 28  6  0  0.0  .139488838613E-04 -.841282599140E-11  .000000000000E+00
     .820000000000E+02  .438125000000E+02  .493056252058E-08  .293944361979E+01
     .238046050072E-05  .106664549094E-02  .475905835629E-05  .515364653015E+04
     .540000000000E+06 -.689178705215E-07 -.845566759535E+00  .372529029846E-08
     .955710585868E+00  .285625000000E+03  .308286725686E+01 -.833534720067E-08
     .764317551180E-10  .100000000000E+01  .217200000000E+04  .000000000000E+00
     .200000000000E+01  .000000000000E+00 -.791624188423E-08  .850000000000E+03
     .518400000000E+06  .400000000000E+01
15 21  8 28  6  0  0.0 -.125242862850E-03  .272848410532E-11  .000000000000E+00
     .540000000000E+02 -.370000000000E+02  .536593779856E-08 -.633742823807E+00
    -.168383121490E-05  .135560819181E-01  .725500285625E-05  .515366575813E+04
     .540000000000E+06 -.409781932831E-07 -.310229039094E+01  .214204192162E-06
     .929712376721E+00  .223593750000E+03  .101764710534E+01 -.867000399761E-08
    -.146077513286E-09  .100000000000E+01  .217200000000E+04  .000000000000E+00
     .200000000000E+01  .000000000000E+00 -.107102096081E-07  .540000000000E+02
     .518400000000E+06  .400000000000E+01
16 21  8 28  6  0  0.0 -.381004065275E-03 -.636646291241E-11  .000000000000E+00
     .920000000000E+02  .408437500000E+02  .470126725522E-08  .114717158700E+01
     .233948230743E-05  .121865093242E-01  .480189919472E-05  .515374674034E+04
     .540000000000E+06 -.558793544769E-07 -.798261604994E+00  .139698386192E-06
     .972313446495E+00  .294312500000E+03  .680296740656E+00 -.843285126210E-08
    -.835749098019E-10  .100000000000E+01  .217200000000E+04  .000000000000E+00
     .200000000000E+01  .000000000000E+00 -.102445483208E-07  .920000000000E+02
     .518400000000E+06  .400000000000E+01
17 21  8 28  6  0  0.0  .496072694659E-03  .579802872380E-11  .000000000000E+00
     .690000000000E+02 -.365312500000E+02  .419767485001E-08  .300631344719E+00
    -.189431011677E-05  .134838880040E-01  .687502324581E-05  .515365215302E+04
     .540000000000E+06 -.150874257088E-06  .219286394959E+00 -.651925802231E-07
     .981689333815E+00  .262968750000E+03 -.155995347057E+01 -.819962726167E-08
    -.334656796942E-09  .100000000000E+01  .217200000000E+04  .000000000000E+00
     .400000000000E+01  .000000000000E+00 -.111758708954E-07  .690000000000E+02
     .518400000000E+06  .400000000000E+01
18 21  8 28  6  0  0.0  .328517984599E-03 -.386535248253E-11  .000000000000E+00
     .175000000000E+03 -.556250000000E+01  .409517058029E-08 -.163248572283E+01
    -.344589352608E-06  .186947453767E-02  .979565083981E-05  .515365298843E+04
     .540000000000E+06 -.726431608200E-07  .122647823398E+01  .335276126862E-07
     .968883068909E+00  .194875000000E+03  .291814645546E+01 -.783104047998E-08
     .170721396946E-09  .100000000000E+01  .217200000000E+04  .000000000000E+00
     .200000000000E+01  .000000000000E+00 -.838190317154E-08  .175000000000E+03
     .518400000000E+06  .400000000000E+01
19 21  8 28  6  0  0.0  .453847460449E-04  .488853402203E-11  .000000000000E+00
     .560000000000E+02 -.404375000000E+02  .413088635371E-08  .268104010324E+01
    -.200793147087E-05  .917651399504E-02  .672414898872E-05  .515365157890E+04
     .540000000000E+06  .216066837311E-06  .264312800043E+00 -.372529029846E-08
     .980298733629E+00  .258375000000E+03  .192863808345E+01 -.784639826255E-08
    -.346800159904E-09  .100000000000E+01  .217200000000E+04  .000000000000E+00
     .200000000000E+01  .000000000000E+00 -.153668224812E-07  .560000000000E+02
     .518400000000E+06  .400000000000E+01
20 21  8 28  6  0  0.0  .519421882927E-03 -.227373675443E-12  .000000000000E+00
     .870000000000E+02  .390625000000E+01  .511342728049E-08 -.791860143193E+00
     .212341547012E-06  .551596260630E-02  .598467886448E-05  .515364073944E+04
     .540000000000E+06  .428408384323E-07  .210425686528E+01 -.160187482834E-06
     .939282020226E+00  .254812500000E+03  .297412426529E+01 -.843606568171E-08
     .234295473633E-09  .100000000000E+01  .217200000000E+04  .000000000000E+00
     .200000000000E+01  .000000000000E+00 -.838190317154E-08  .870000000000E+02
     .518400000000E+06  .400000000000E+01
21 21  8 28  6  0  0.0  .139649491757E-03  .204636307899E-11  .000000000000E+00
     .260000000000E+02 -.300625000000E+02  .451518807571E-08  .394136808329E+00
    -.177137553692E-05  .240542796673E-01  .965036451817E-05  .515365179253E+04
     .540000000000E+06 -.856816768646E-07  .112986139231E+01 -.352039933205E-06
     .957926972589E+00  .202437500000E+03 -.109268049254E+01 -.846285251178E-08
    -.278583032673E-10  .100000000000E+01  .217200000000E+04  .000000000000E+00
     .200000000000E+01  .000000000000E+00 -.102445483208E-07  .260000000000E+02
     .518400000000E+06  .400000000000E+01
22 21  8 28  6  0  0.0 -.527397729456E-03  .932232069317E-11  .000000000000E+00
     .340000000000E+02 -.431250000000E+01  .517021536022E-08 -.831689723444E+00
    -.126659870148E-06  .678244431037E-02  .606477260590E-05  .515374684334E+04
     .540000000000E+06 -.134110450745E-06  .215046993246E+01 -.204890966415E-07
     .935997665271E+00  .250843750000E+03 -.901101043321E+00 -.849856828520E-08
     .311084386485E-09  .100000000000E+01  .217200000000E+04  .000000000000E+00
     .200000000000E+01  .000000000000E+00 -.176951289177E-07  .340000000000E+02
     .518400000000E+06  .400000000000E+01
